[{"OBJECT_NAME":"STARLINK-35073","OBJECT_ID":"2025-191G","EPOCH":"2026-03-09T15:33:17.880768","MEAN_MOTION":15.05647111,"ECCENTRICITY":0.0002493,"INCLINATION":97.6029,"RA_OF_ASC_NODE":301.4921,"ARG_OF_PERICENTER":90.8695,"MEAN_ANOMALY":269.2817,"EPHEMERIS_TYPE":0,"CLASSIFICATION_TYPE":"U","NORAD_CAT_ID":65385,"ELEMENT_SET_NO":999,"REV_AT_EPOCH":3026,"BSTAR":0.00013482,"MEAN_MOTION_DOT":1.885e-5,"MEAN_MOTION_DDOT":0},{"OBJECT_NAME":"CZ-6A DEB","OBJECT_ID":"2022-151RK","EPOCH":"2026-03-09T04:16:52.342176","MEAN_MOTION":15.00981633,"ECCENTRICITY":0.00383954,"INCLINATION":98.6273,"RA_OF_ASC_NODE":143.4522,"ARG_OF_PERICENTER":188.2396,"MEAN_ANOMALY":171.8199,"EPHEMERIS_TYPE":0,"CLASSIFICATION_TYPE":"U","NORAD_CAT_ID":54922,"ELEMENT_SET_NO":999,"REV_AT_EPOCH":17321,"BSTAR":0.0056092635,"MEAN_MOTION_DOT":0.00073321,"MEAN_MOTION_DDOT":0}]
